{"fetched_at":"2026-03-30T13:17:50Z","count":15418,"tles":[{"name":"STARLINK-11408 [DTC]","line1":"1 63064U 25035N   26087.94722147  .00253950  00000+0  19192-2 0  9990","line2":"2 63064  42.9978 258.8958 0001576 267.9925  92.0762 15.70884008 64258","category":"Starlink"}]}